[
{"name":"(2014 GC49)","year":"2014","neo_reference_id":"3667477","url":"http://ssd.jpl.nasa.gov/sbdb.cgi?sstr=3667477","api_link":"https://api.nasa.gov/neo/rest/v1/neo/3667477?api_key=CGuQueDNtud5hWODnVj9El7kwfizD8Ql2XqEz3s5","closest_approach":"2014-04-03","potentially_hazardous":false,"absolute_magnitude_h":28.6,"estimated_diameter":0.00819488035,"kilometers_per_second":17.0768433646,"miss_distance":0.2954214215,"orbital_data":[{"orbit_id":"3","orbit_determination_date":"2014-06-13 19:23:00","orbit_uncertainty":"6","minimum_orbit_intersection":".000348438","jupiter_tisserand_invariant":"7.653","epoch_osculation":"2457600.5","eccentricity":".6440671760017174","semi_major_axis":".7347859994914548","inclination":"6.429712583667094","ascending_node_longitude":"193.2969242353226","orbital_period":"230.059269237513","perihelion_distance":".2615344558333942","perihelion_argument":"207.5265928715016","aphelion_distance":"1.208037543149515","perihelion_time":"2457611.052052399754","mean_anomaly":"343.4879990860542","mean_motion":"1.564814150688866","equinox":"J2000"}]},
{"name":"(2014 GY44)","year":"2014","neo_reference_id":"3667132","url":"http://ssd.jpl.nasa.gov/sbdb.cgi?sstr=3667132","api_link":"https://api.nasa.gov/neo/rest/v1/neo/3667132?api_key=CGuQueDNtud5hWODnVj9El7kwfizD8Ql2XqEz3s5","closest_approach":"2014-03-30","potentially_hazardous":false,"absolute_magnitude_h":25.4,"estimated_diameter":0.035771950149999995,"kilometers_per_second":12.4969103516,"miss_distance":0.4359741807,"orbital_data":[{"orbit_id":"9","orbit_determination_date":"2014-08-13 13:13:17","orbit_uncertainty":"5","minimum_orbit_intersection":".00142624","jupiter_tisserand_invariant":"5.243","epoch_osculation":"2457600.5","eccentricity":".3910460631226868","semi_major_axis":"1.188725342126372","inclination":"10.19151656868701","ascending_node_longitude":"188.7148642923732","orbital_period":"473.3917761278691","perihelion_distance":".7238789769536854","perihelion_argument":"271.6091227619488","aphelion_distance":"1.653571707299059","perihelion_time":"2457633.663479049172","mean_anomaly":"334.7801861803422","mean_motion":".7604694845876653","equinox":"J2000"}]},
{"name":"(2014 EX24)","year":"2014","neo_reference_id":"3663828","url":"http://ssd.jpl.nasa.gov/sbdb.cgi?sstr=3663828","api_link":"https://api.nasa.gov/neo/rest/v1/neo/3663828?api_key=CGuQueDNtud5hWODnVj9El7kwfizD8Ql2XqEz3s5","closest_approach":"2014-03-09","potentially_hazardous":false,"absolute_magnitude_h":28.6,"estimated_diameter":0.00819488035,"kilometers_per_second":16.1971354935,"miss_distance":0.6843040586,"orbital_data":[{"orbit_id":"3","orbit_determination_date":"2014-06-13 19:16:58","orbit_uncertainty":"7","minimum_orbit_intersection":".00101686","jupiter_tisserand_invariant":"4.299","epoch_osculation":"2457600.5","eccentricity":".5627087600000167","semi_major_axis":"1.528134700149684","inclination":"4.097605110661994","ascending_node_longitude":"167.9094521121157","orbital_period":"689.9869601996664","perihelion_distance":".6682399179154579","perihelion_argument":"275.9842422271221","aphelion_distance":"2.38802948238391","perihelion_time":"2457365.753854643636","mean_anomaly":"122.4785643830662","mean_motion":".5217489905835673","equinox":"J2000"}]},
{"name":"(2014 DX110)","year":"2014","neo_reference_id":"3662876","url":"http://ssd.jpl.nasa.gov/sbdb.cgi?sstr=3662876","api_link":"https://api.nasa.gov/neo/rest/v1/neo/3662876?api_key=CGuQueDNtud5hWODnVj9El7kwfizD8Ql2XqEz3s5","closest_approach":"2014-03-05","potentially_hazardous":false,"absolute_magnitude_h":25.7,"estimated_diameter":0.031156066099999997,"kilometers_per_second":14.8507388976,"miss_distance":0.9062586427,"orbital_data":[{"orbit_id":"7","orbit_determination_date":"2014-06-13 19:13:13","orbit_uncertainty":"6","minimum_orbit_intersection":".00125208","jupiter_tisserand_invariant":"3.374","epoch_osculation":"2457600.5","eccentricity":".6249165160980997","semi_major_axis":"2.201819718944683","inclination":"5.73613897408191","ascending_node_longitude":"163.8301092204275","orbital_period":"1193.358860771129","perihelion_distance":".8258662111056745","perihelion_argument":"56.52450363826426","aphelion_distance":"3.577773226783691","perihelion_time":"2457953.664263411668","mean_anomaly":"253.4611046118638","mean_motion":".3016695244273579","equinox":"J2000"}]},
{"name":"(2014 EC)","year":"2014","neo_reference_id":"3663062","url":"http://ssd.jpl.nasa.gov/sbdb.cgi?sstr=3663062","api_link":"https://api.nasa.gov/neo/rest/v1/neo/3663062?api_key=CGuQueDNtud5hWODnVj9El7kwfizD8Ql2XqEz3s5","closest_approach":"2014-03-06","potentially_hazardous":false,"absolute_magnitude_h":28.2,"estimated_diameter":0.0098524132,"kilometers_per_second":16.0129998132,"miss_distance":0.1601293981,"orbital_data":[{"orbit_id":"10","orbit_determination_date":"2014-08-13 13:12:48","orbit_uncertainty":"6","minimum_orbit_intersection":".000379999","jupiter_tisserand_invariant":"4.467","epoch_osculation":"2457600.5","eccentricity":".5256785246274074","semi_major_axis":"1.458885109073238","inclination":"1.402589877699037","ascending_node_longitude":"344.991149270605","orbital_period":"643.6207899385139","perihelion_distance":".6919805373347242","perihelion_argument":"264.0283947047267","aphelion_distance":"2.225789680811753","perihelion_time":"2457418.349475278131","mean_anomaly":"101.8832671737301","mean_motion":".5593355678184221","equinox":"J2000"}]},
{"name":"(2014 EF)","year":"2014","neo_reference_id":"3663067","url":"http://ssd.jpl.nasa.gov/sbdb.cgi?sstr=3663067","api_link":"https://api.nasa.gov/neo/rest/v1/neo/3663067?api_key=CGuQueDNtud5hWODnVj9El7kwfizD8Ql2XqEz3s5","closest_approach":"2014-03-06","potentially_hazardous":false,"absolute_magnitude_h":28.9,"estimated_diameter":0.0071374424,"kilometers_per_second":15.0873022071,"miss_distance":0.4405614436,"orbital_data":[{"orbit_id":"4","orbit_determination_date":"2014-06-13 19:15:16","orbit_uncertainty":"6","minimum_orbit_intersection":".000946719","jupiter_tisserand_invariant":"4.731","epoch_osculation":"2457600.5","eccentricity":".4891518102881425","semi_major_axis":"1.353631837189389","inclination":"4.250063120014351","ascending_node_longitude":"344.4219774885115","orbital_period":"575.240251371668","perihelion_distance":".6915003735645353","perihelion_argument":"266.4227965229588","aphelion_distance":"2.015763300814243","perihelion_time":"2457351.264780573837","mean_anomaly":"155.97774804435","mean_motion":".6258254688220708","equinox":"J2000"}]},
{"name":"(2014 DK10)","year":"2014","neo_reference_id":"3662293","url":"http://ssd.jpl.nasa.gov/sbdb.cgi?sstr=3662293","api_link":"https://api.nasa.gov/neo/rest/v1/neo/3662293?api_key=CGuQueDNtud5hWODnVj9El7kwfizD8Ql2XqEz3s5","closest_approach":"2014-02-21","potentially_hazardous":false,"absolute_magnitude_h":27.7,"estimated_diameter":0.012403453299999999,"kilometers_per_second":12.016143233,"miss_distance":0.6767466664,"orbital_data":[{"orbit_id":"10","orbit_determination_date":"2014-08-13 13:12:35","orbit_uncertainty":"6","minimum_orbit_intersection":".00094768","jupiter_tisserand_invariant":"3.857","epoch_osculation":"2457600.5","eccentricity":".507323471872247","semi_major_axis":"1.820911383434596","inclination":"11.53001435535503","ascending_node_longitude":"152.7514911239532","orbital_period":"897.4941846647445","perihelion_distance":".8971202984188604","perihelion_argument":"315.7501669335754","aphelion_distance":"2.744702468450332","perihelion_time":"2457574.410531134087","mean_anomaly":"10.46492439974647","mean_motion":".4011168051573243","equinox":"J2000"}]},
{"name":"(2014 AW32)","year":"2014","neo_reference_id":"3655869","url":"http://ssd.jpl.nasa.gov/sbdb.cgi?sstr=3655869","api_link":"https://api.nasa.gov/neo/rest/v1/neo/3655869?api_key=CGuQueDNtud5hWODnVj9El7kwfizD8Ql2XqEz3s5","closest_approach":"2014-01-10","potentially_hazardous":false,"absolute_magnitude_h":27.5,"estimated_diameter":0.0136001161,"kilometers_per_second":12.371179313,"miss_distance":0.4853710532,"orbital_data":[{"orbit_id":"5","orbit_determination_date":"2014-06-13 19:01:15","orbit_uncertainty":"5","minimum_orbit_intersection":".000224484","jupiter_tisserand_invariant":"5.817","epoch_osculation":"2457600.5","eccentricity":".2587885804569866","semi_major_axis":"1.041787990564524","inclination":"17.8419754446929","ascending_node_longitude":"290.1895903976116","orbital_period":"388.3894700918502","perihelion_distance":".772185155349194","perihelion_argument":"272.8258390879674","aphelion_distance":"1.311390825779853","perihelion_time":"2457513.479074161265","mean_anomaly":"80.66009949892796","mean_motion":".9269046349656793","equinox":"J2000"}]},
{"name":"(2014 AG51)","year":"2014","neo_reference_id":"3655973","url":"http://ssd.jpl.nasa.gov/sbdb.cgi?sstr=3655973","api_link":"https://api.nasa.gov/neo/rest/v1/neo/3655973?api_key=CGuQueDNtud5hWODnVj9El7kwfizD8Ql2XqEz3s5","closest_approach":"2014-01-09","potentially_hazardous":false,"absolute_magnitude_h":29.9,"estimated_diameter":0.0045034217,"kilometers_per_second":15.0369220876,"miss_distance":0.3410733938,"orbital_data":[{"orbit_id":"3","orbit_determination_date":"2014-06-13 19:02:02","orbit_uncertainty":"7","minimum_orbit_intersection":".00034508","jupiter_tisserand_invariant":"3.743","epoch_osculation":"2457600.5","eccentricity":".5903931993658926","semi_major_axis":"1.875740932918168","inclination":".09038882946976876","ascending_node_longitude":"141.5258706495612","orbital_period":"938.334556468345","perihelion_distance":".7683162423510466","perihelion_argument":"261.4008449256253","aphelion_distance":"2.983165623485289","perihelion_time":"2457562.417175280560","mean_anomaly":"14.610798253662","mean_motion":".3836584696986428","equinox":"J2000"}]}  
]
